{"type":"FeatureCollection","features":[{"type":"Feature","geometry":{"type":"LineString","coordinates":[[43.891039,4.124305],[44.187518,4.149352],[44.512368,4.016902],[44.821618,4.513131],[45.200895,4.734918]]},"properties":{"id":"Southwest_Primary road (Connects minimum of two FMS)_1","name":"Southwest - Primary road (Connects minimum of two FMS) Road 1","road_type":"Primary road (Connects minimum of two FMS)","state":"Southwest","color":"#FF0000","stroke":"#FF0000"}},{"type":"Feature","geometry":{"type":"LineString","coordinates":[[45.12745,2.136553],[45.100301,2.110069],[45.085888,2.09683],[45.068674,2.08125],[45.043272,2.056133],[45.003458,2.011741],[44.975316,1.977631],[44.959486,1.961161],[44.902616,1.91046],[44.822354,1.831386],[44.728306,1.736141],[44.634999,1.733395],[44.69551,1.715469],[44.625139,1.726249],[44.613625,1.716943],[44.593876,1.675661],[44.583294,1.659168],[44.522457,1.63345],[44.430119,1.546704],[44.344269,1.471603],[44.231138,1.371546],[43.991026,1.139357],[43.969398,1.119736],[43.873793,1.097004],[43.820362,1.036589],[43.743522,1.000889],[43.648673,0.944593],[43.554028,0.87319],[43.510646,0.83827],[43.479799,0.830718],[43.43136,0.800555],[43.408677,0.787854],[43.374693,0.791287],[43.297051,0.731755],[43.113179,0.590127],[43.030898,0.534014],[42.983375,0.506643],[42.934659,0.483204],[42.909868,0.460344],[42.863891,0.476432],[42.838771,0.487465],[42.815106,0.488495],[42.792973,0.494698],[42.784543,0.497371],[42.783165,0.497033]]},"properties":{"id":"Southwest_Primary road (Connects minimum of two FMS)_2","name":"Southwest - Primary road (Connects minimum of two FMS) Road 2","road_type":"Primary road (Connects minimum of two FMS)","state":"Southwest","color":"#FF0000","stroke":"#FF0000"}},{"type":"Feature","geometry":{"type":"LineString","coordinates":[[43.660234,4.828341],[43.888551,4.119067]]},"properties":{"id":"Southwest_Secondary road (Connects minimum of two major districts  within one FMS )_1","name":"Southwest - Secondary road (Connects minimum of two major districts  within one FMS ) Road 1","road_type":"Secondary road (Connects minimum of two major districts  within one FMS )","state":"Southwest","color":"#FF0000","stroke":"#FF0000"}},{"type":"Feature","geometry":{"type":"LineString","coordinates":[[43.660234,4.828341],[43.888551,4.119067]]},"properties":{"id":"Southwest_Secondary road (Connects minimum of two major districts  within one FMS )_2","name":"Southwest - Secondary road (Connects minimum of two major districts  within one FMS ) Road 2","road_type":"Secondary road (Connects minimum of two major districts  within one FMS )","state":"Southwest","color":"#FF0000","stroke":"#FF0000"}},{"type":"Feature","geometry":{"type":"LineString","coordinates":[[43.197733,3.211132],[43.638689,3.132853]]},"properties":{"id":"Southwest_Secondary road (Connects minimum of two major districts  within one FMS )_3","name":"Southwest - Secondary road (Connects minimum of two major districts  within one FMS ) Road 3","road_type":"Secondary road (Connects minimum of two major districts  within one FMS )","state":"Southwest","color":"#FF0000","stroke":"#FF0000"}}]}