{
  "type": "FeatureCollection",
  "features": [
    {
      "type": "Feature",
      "properties": {
        "name": "Wajid to Hudur",
        "color": "#e54444",
        "stroke": "#e54444",
        "stroke-width": 4,
        "stroke-opacity": 0.8,
        "road_id": 1
      },
      "geometry": {
        "type": "LineString",
        "coordinates": [
          [
            43.247869,
            3.807257
          ],
          [
            43.431587,
            3.896072
          ],
          [
            43.587247,
            3.90335
          ],
          [
            43.892042,
            4.124297
          ]
        ]
      }
    },
    {
      "type": "Feature",
      "properties": {
        "name": "Baidoa To Dinsoor",
        "color": "#4473e5",
        "stroke": "#4473e5",
        "stroke-width": 4,
        "stroke-opacity": 0.8,
        "road_id": 2
      },
      "geometry": {
        "type": "LineString",
        "coordinates": [
          [
            43.646262,
            3.115555
          ],
          [
            43.436191,
            2.749879
          ],
          [
            42.977226,
            2.404291
          ]
        ]
      }
    },
    {
      "type": "Feature",
      "properties": {
        "name": "Baidoa -Wajid road",
        "color": "#a2e544",
        "stroke": "#a2e544",
        "stroke-width": 4,
        "stroke-opacity": 0.8,
        "road_id": 3
      },
      "geometry": {
        "type": "LineString",
        "coordinates": [
          [
            43.649694,
            3.114676
          ],
          [
            43.570838,
            3.216272
          ],
          [
            43.468892,
            3.317041
          ],
          [
            43.355474,
            3.579725
          ],
          [
            43.331015,
            3.654931
          ],
          [
            43.255274,
            3.814906
          ]
        ]
      }
    },
    {
      "type": "Feature",
      "properties": {
        "name": "Hudur-Elbarde",
        "color": "#e544d1",
        "stroke": "#e544d1",
        "stroke-width": 4,
        "stroke-opacity": 0.8,
        "road_id": 4
      },
      "geometry": {
        "type": "LineString",
        "coordinates": [
          [
            43.660234,
            4.828341
          ],
          [
            43.888551,
            4.119067
          ]
        ]
      }
    },
    {
      "type": "Feature",
      "properties": {
        "name": "Baidoa, Awdile, Bardale Road",
        "color": "#44e5ca",
        "stroke": "#44e5ca",
        "stroke-width": 4,
        "stroke-opacity": 0.8,
        "road_id": 5
      },
      "geometry": {
        "type": "LineString",
        "coordinates": [
          [
            43.197733,
            3.211132
          ],
          [
            43.638689,
            3.132853
          ]
        ]
      }
    },
    {
      "type": "Feature",
      "properties": {
        "name": "marka road",
        "color": "#e59b44",
        "stroke": "#e59b44",
        "stroke-width": 4,
        "stroke-opacity": 0.8,
        "road_id": 6
      },
      "geometry": {
        "type": "LineString",
        "coordinates": [
          [
            45.12745,
            2.136553
          ],
          [
            45.100301,
            2.110069
          ],
          [
            45.085888,
            2.09683
          ],
          [
            45.068674,
            2.08125
          ],
          [
            45.043272,
            2.056133
          ],
          [
            45.003458,
            2.011741
          ],
          [
            44.975316,
            1.977631
          ],
          [
            44.959486,
            1.961161
          ],
          [
            44.902616,
            1.91046
          ],
          [
            44.822354,
            1.831386
          ],
          [
            44.728306,
            1.736141
          ],
          [
            44.634999,
            1.733395
          ],
          [
            44.69551,
            1.715469
          ],
          [
            44.625139,
            1.726249
          ],
          [
            44.613625,
            1.716943
          ],
          [
            44.593876,
            1.675661
          ],
          [
            44.583294,
            1.659168
          ],
          [
            44.522457,
            1.63345
          ],
          [
            44.430119,
            1.546704
          ],
          [
            44.344269,
            1.471603
          ],
          [
            44.231138,
            1.371546
          ],
          [
            43.991026,
            1.139357
          ],
          [
            43.969398,
            1.119736
          ],
          [
            43.873793,
            1.097004
          ],
          [
            43.820362,
            1.036589
          ],
          [
            43.743522,
            1.000889
          ],
          [
            43.648673,
            0.944593
          ],
          [
            43.554028,
            0.87319
          ],
          [
            43.510646,
            0.83827
          ],
          [
            43.479799,
            0.830718
          ],
          [
            43.43136,
            0.800555
          ],
          [
            43.408677,
            0.787854
          ],
          [
            43.374693,
            0.791287
          ],
          [
            43.297051,
            0.731755
          ],
          [
            43.113179,
            0.590127
          ],
          [
            43.030898,
            0.534014
          ],
          [
            42.983375,
            0.506643
          ],
          [
            42.934659,
            0.483204
          ],
          [
            42.909868,
            0.460344
          ],
          [
            42.863891,
            0.476432
          ],
          [
            42.838771,
            0.487465
          ],
          [
            42.815106,
            0.488495
          ],
          [
            42.792973,
            0.494698
          ],
          [
            42.784543,
            0.497371
          ],
          [
            42.783165,
            0.497033
          ]
        ]
      }
    },
    {
      "type": "Feature",
      "properties": {
        "name": "qoryoolay-jameeco",
        "color": "#6c44e5",
        "stroke": "#6c44e5",
        "stroke-width": 4,
        "stroke-opacity": 0.8,
        "road_id": 7
      },
      "geometry": {
        "type": "LineString",
        "coordinates": [
          [
            44.530766,
            1.787949
          ],
          [
            44.530587,
            1.788046
          ],
          [
            44.530437,
            1.788072
          ],
          [
            44.529869,
            1.788164
          ],
          [
            44.529638,
            1.787901
          ],
          [
            44.529225,
            1.787456
          ],
          [
            44.528438,
            1.786341
          ],
          [
            44.527494,
            1.786769
          ],
          [
            44.526083,
            1.78722
          ],
          [
            44.522073,
            1.787724
          ],
          [
            44.518244,
            1.788475
          ],
          [
            44.517171,
            1.790362
          ],
          [
            44.513382,
            1.789751
          ],
          [
            44.50656,
            1.792624
          ],
          [
            44.498686,
            1.794319
          ],
          [
            44.491671,
            1.792882
          ],
          [
            44.487335,
            1.792367
          ],
          [
            44.4718,
            1.780527
          ],
          [
            44.46318,
            1.776539
          ],
          [
            44.461177,
            1.775531
          ],
          [
            44.460296,
            1.776046
          ],
          [
            44.459864,
            1.777731
          ]
        ]
      }
    },
    {
      "type": "Feature",
      "properties": {
        "name": "shalanbood -qoryoolay",
        "color": "#4be544",
        "stroke": "#4be544",
        "stroke-width": 4,
        "stroke-opacity": 0.8,
        "road_id": 8
      },
      "geometry": {
        "type": "LineString",
        "coordinates": [
          [
            44.693328,
            1.703275
          ],
          [
            44.690929,
            1.705892
          ],
          [
            44.68893,
            1.707736
          ],
          [
            44.682014,
            1.700918
          ],
          [
            44.655174,
            1.721683
          ],
          [
            44.633358,
            1.737646
          ],
          [
            44.627067,
            1.728628
          ],
          [
            44.624492,
            1.727254
          ],
          [
            44.606413,
            1.7409
          ],
          [
            44.604058,
            1.742525
          ],
          [
            44.599947,
            1.742911
          ],
          [
            44.595996,
            1.74364
          ],
          [
            44.58853,
            1.745185
          ],
          [
            44.583635,
            1.743811
          ],
          [
            44.561051,
            1.75068
          ],
          [
            44.558499,
            1.754881
          ],
          [
            44.553793,
            1.762464
          ],
          [
            44.552161,
            1.766239
          ],
          [
            44.549536,
            1.769652
          ],
          [
            44.547172,
            1.773641
          ],
          [
            44.540065,
            1.776019
          ],
          [
            44.538978,
            1.777588
          ],
          [
            44.537911,
            1.781252
          ],
          [
            44.537632,
            1.783059
          ],
          [
            44.537523,
            1.783396
          ],
          [
            44.537394,
            1.783637
          ],
          [
            44.535481,
            1.783611
          ],
          [
            44.531841,
            1.785198
          ],
          [
            44.530188,
            1.785759
          ],
          [
            44.52967,
            1.785953
          ],
          [
            44.530012,
            1.787079
          ]
        ]
      }
    },
    {
      "type": "Feature",
      "properties": {
        "name": "AFGOYE-AWDHEEGLE",
        "color": "#e5447a",
        "stroke": "#e5447a",
        "stroke-width": 4,
        "stroke-opacity": 0.8,
        "road_id": 9
      },
      "geometry": {
        "type": "LineString",
        "coordinates": [
          [
            45.117882,
            2.14212
          ],
          [
            45.116047,
            2.138946
          ],
          [
            45.112484,
            2.136973
          ],
          [
            45.111772,
            2.136509
          ],
          [
            45.110228,
            2.135952
          ],
          [
            45.109488,
            2.135752
          ],
          [
            45.107631,
            2.135416
          ],
          [
            45.106371,
            2.134934
          ],
          [
            45.083474,
            2.129854
          ],
          [
            45.059076,
            2.132647
          ],
          [
            45.051333,
            2.125785
          ],
          [
            45.032461,
            2.120467
          ],
          [
            45.009543,
            2.104047
          ],
          [
            44.977419,
            2.085856
          ],
          [
            44.966918,
            2.084683
          ],
          [
            44.961065,
            2.083653
          ],
          [
            44.954568,
            2.078679
          ],
          [
            44.939727,
            2.063692
          ],
          [
            44.906208,
            2.047838
          ],
          [
            44.900438,
            2.04469
          ],
          [
            44.891533,
            2.029478
          ],
          [
            44.879732,
            2.014038
          ],
          [
            44.871507,
            1.998941
          ],
          [
            44.866841,
            1.994931
          ],
          [
            44.839065,
            1.981721
          ],
          [
            44.833846,
            1.982279
          ],
          [
            44.832396,
            1.979305
          ],
          [
            44.831235,
            1.978559
          ],
          [
            44.831857,
            1.977937
          ],
          [
            44.832307,
            1.977681
          ],
          [
            44.83241,
            1.977671
          ]
        ]
      }
    },
    {
      "type": "Feature",
      "properties": {
        "name": "HUDUR - BUQKOOSAR",
        "color": "#44a9e5",
        "stroke": "#44a9e5",
        "stroke-width": 4,
        "stroke-opacity": 0.8,
        "road_id": 10
      },
      "geometry": {
        "type": "LineString",
        "coordinates": [
          [
            43.889524,
            4.123299
          ],
          [
            43.890745,
            4.12437
          ],
          [
            43.891005,
            4.124147
          ],
          [
            43.891223,
            4.123919
          ],
          [
            43.891617,
            4.123366
          ],
          [
            43.892035,
            4.122212
          ],
          [
            43.893461,
            4.119594
          ],
          [
            43.895129,
            4.119759
          ],
          [
            43.899388,
            4.122027
          ],
          [
            43.909459,
            4.126115
          ],
          [
            43.915741,
            4.12772
          ],
          [
            43.921953,
            4.129539
          ],
          [
            43.940843,
            4.131991
          ],
          [
            43.961272,
            4.129765
          ],
          [
            43.978939,
            4.129327
          ],
          [
            44.003411,
            4.130697
          ],
          [
            44.063377,
            4.132465
          ],
          [
            44.089875,
            4.131491
          ],
          [
            44.136367,
            4.136574
          ],
          [
            44.15516,
            4.14049
          ],
          [
            44.170573,
            4.142545
          ],
          [
            44.181731,
            4.149811
          ],
          [
            44.195436,
            4.149982
          ],
          [
            44.207142,
            4.152794
          ],
          [
            44.228534,
            4.149881
          ],
          [
            44.25466,
            4.143035
          ],
          [
            44.261887,
            4.134988
          ],
          [
            44.271205,
            4.136239
          ],
          [
            44.294148,
            4.134406
          ],
          [
            44.325324,
            4.121565
          ],
          [
            44.331716,
            4.117765
          ],
          [
            44.340506,
            4.116599
          ],
          [
            44.371355,
            4.091188
          ],
          [
            44.398152,
            4.048723
          ],
          [
            44.432244,
            4.020842
          ],
          [
            44.440249,
            4.016259
          ],
          [
            44.506983,
            4.011736
          ],
          [
            44.514563,
            4.018143
          ],
          [
            44.528816,
            4.013862
          ],
          [
            44.59209,
            4.050436
          ],
          [
            44.656693,
            4.128373
          ],
          [
            44.693762,
            4.168235
          ],
          [
            44.694953,
            4.171936
          ],
          [
            44.697185,
            4.176695
          ],
          [
            44.693812,
            4.210552
          ],
          [
            44.681356,
            4.251929
          ],
          [
            44.690981,
            4.305749
          ],
          [
            44.712172,
            4.362304
          ],
          [
            44.714218,
            4.38325
          ],
          [
            44.731553,
            4.404884
          ],
          [
            44.774841,
            4.436252
          ],
          [
            44.783012,
            4.473484
          ],
          [
            44.795062,
            4.485938
          ],
          [
            44.803455,
            4.489941
          ],
          [
            44.816274,
            4.510171
          ],
          [
            44.866014,
            4.531048
          ]
        ]
      }
    },
    {
      "type": "Feature",
      "properties": {
        "name": "buula mareer -kunturwaaray",
        "color": "#d8e544",
        "stroke": "#d8e544",
        "stroke-width": 4,
        "stroke-opacity": 0.8,
        "road_id": 11
      },
      "geometry": {
        "type": "LineString",
        "coordinates": [
          [
            44.522807,
            1.633524
          ],
          [
            44.51892,
            1.630413
          ],
          [
            44.514094,
            1.626027
          ],
          [
            44.509483,
            1.621748
          ],
          [
            44.502531,
            1.614864
          ],
          [
            44.493919,
            1.613663
          ],
          [
            44.448299,
            1.610918
          ],
          [
            44.435588,
            1.61259
          ],
          [
            44.43227,
            1.612482
          ],
          [
            44.423049,
            1.606841
          ],
          [
            44.416519,
            1.60401
          ],
          [
            44.404668,
            1.606628
          ],
          [
            44.400126,
            1.606498
          ],
          [
            44.38116,
            1.605427
          ],
          [
            44.366671,
            1.604611
          ],
          [
            44.347352,
            1.604353
          ],
          [
            44.335415,
            1.610423
          ],
          [
            44.331905,
            1.612504
          ]
        ]
      }
    },
    {
      "type": "Feature",
      "properties": {
        "name": "buula barako -dhargo",
        "color": "#c344e5",
        "stroke": "#c344e5",
        "stroke-width": 4,
        "stroke-opacity": 0.8,
        "road_id": 12
      },
      "geometry": {
        "type": "LineString",
        "coordinates": [
          [
            43.371854,
            2.918563
          ],
          [
            43.37144,
            2.910683
          ],
          [
            43.373488,
            2.906098
          ],
          [
            43.373655,
            2.90555
          ],
          [
            43.375638,
            2.899197
          ],
          [
            43.37973,
            2.895319
          ],
          [
            43.384066,
            2.890148
          ],
          [
            43.387027,
            2.884105
          ],
          [
            43.392556,
            2.869684
          ],
          [
            43.39325,
            2.85733
          ],
          [
            43.395482,
            2.853253
          ],
          [
            43.396771,
            2.84913
          ],
          [
            43.398915,
            2.842357
          ],
          [
            43.399943,
            2.841886
          ],
          [
            43.40252,
            2.842443
          ],
          [
            43.406209,
            2.838539
          ],
          [
            43.411283,
            2.831081
          ],
          [
            43.410851,
            2.829884
          ],
          [
            43.411493,
            2.826327
          ],
          [
            43.416599,
            2.805355
          ],
          [
            43.430319,
            2.782037
          ],
          [
            43.429986,
            2.773986
          ],
          [
            43.432907,
            2.753232
          ],
          [
            43.436841,
            2.748166
          ]
        ]
      }
    },
    {
      "type": "Feature",
      "properties": {
        "name": "sablale diinsoor road",
        "color": "#44e594",
        "stroke": "#44e594",
        "stroke-width": 4,
        "stroke-opacity": 0.8,
        "road_id": 13
      },
      "geometry": {
        "type": "LineString",
        "coordinates": [
          [
            43.805312,
            1.249359
          ],
          [
            43.799493,
            1.237946
          ],
          [
            43.794928,
            1.230243
          ],
          [
            43.766969,
            1.199866
          ],
          [
            43.730762,
            1.185621
          ],
          [
            43.724911,
            1.178282
          ],
          [
            43.718204,
            1.162452
          ],
          [
            43.716222,
            1.165435
          ],
          [
            43.711507,
            1.168267
          ],
          [
            43.70988,
            1.171871
          ],
          [
            43.707647,
            1.173208
          ],
          [
            43.704645,
            1.174394
          ],
          [
            43.677537,
            1.206113
          ],
          [
            43.557025,
            1.340261
          ],
          [
            43.552313,
            1.356698
          ],
          [
            43.510096,
            1.386764
          ],
          [
            43.455889,
            1.437904
          ],
          [
            43.367307,
            1.52199
          ],
          [
            43.289891,
            1.633746
          ],
          [
            43.28232,
            1.656396
          ],
          [
            43.262529,
            1.701367
          ],
          [
            43.259513,
            1.736823
          ],
          [
            43.272985,
            1.765367
          ],
          [
            43.265327,
            1.789129
          ],
          [
            43.257079,
            1.806973
          ],
          [
            43.248251,
            1.817085
          ],
          [
            43.243757,
            1.846799
          ],
          [
            43.225275,
            1.894839
          ],
          [
            43.194337,
            1.95523
          ],
          [
            43.189646,
            1.9717
          ],
          [
            43.197378,
            2.009078
          ],
          [
            43.165843,
            2.07742
          ],
          [
            43.134025,
            2.085611
          ],
          [
            43.063252,
            2.195398
          ],
          [
            43.057925,
            2.212187
          ],
          [
            43.043171,
            2.218362
          ],
          [
            43.013346,
            2.264675
          ],
          [
            43.010918,
            2.290541
          ],
          [
            43.004182,
            2.333685
          ],
          [
            42.998778,
            2.347143
          ],
          [
            42.984524,
            2.362843
          ],
          [
            42.977745,
            2.397964
          ],
          [
            42.976027,
            2.40116
          ],
          [
            42.975688,
            2.402489
          ],
          [
            42.976628,
            2.403628
          ],
          [
            42.977346,
            2.404353
          ],
          [
            42.976649,
            2.405454
          ]
        ]
      }
    },
    {
      "type": "Feature",
      "properties": {
        "name": "farsolay-dugule",
        "color": "#e56644",
        "stroke": "#e56644",
        "stroke-width": 4,
        "stroke-opacity": 0.8,
        "road_id": 14
      },
      "geometry": {
        "type": "LineString",
        "coordinates": [
          [
            44.545098,
            2.086085
          ],
          [
            44.546171,
            2.087488
          ],
          [
            44.546245,
            2.088945
          ],
          [
            44.546181,
            2.089344
          ],
          [
            44.545827,
            2.08974
          ],
          [
            44.545676,
            2.090045
          ],
          [
            44.545495,
            2.090463
          ],
          [
            44.54497,
            2.091805
          ],
          [
            44.544293,
            2.093122
          ],
          [
            44.544068,
            2.094443
          ],
          [
            44.543961,
            2.095344
          ],
          [
            44.543822,
            2.096022
          ],
          [
            44.543596,
            2.097243
          ],
          [
            44.542974,
            2.098412
          ],
          [
            44.5418,
            2.100395
          ],
          [
            44.541538,
            2.101884
          ],
          [
            44.541402,
            2.102341
          ],
          [
            44.540866,
            2.103697
          ],
          [
            44.540426,
            2.104791
          ],
          [
            44.53994,
            2.105743
          ],
          [
            44.539798,
            2.106415
          ],
          [
            44.539857,
            2.106991
          ],
          [
            44.540497,
            2.10828
          ],
          [
            44.54109,
            2.111067
          ],
          [
            44.540124,
            2.113791
          ],
          [
            44.540025,
            2.115172
          ],
          [
            44.539027,
            2.116555
          ],
          [
            44.537751,
            2.119021
          ],
          [
            44.537706,
            2.119771
          ],
          [
            44.535058,
            2.124272
          ],
          [
            44.53377,
            2.129637
          ],
          [
            44.533621,
            2.130889
          ],
          [
            44.532677,
            2.133055
          ],
          [
            44.532535,
            2.13425
          ],
          [
            44.531793,
            2.135301
          ],
          [
            44.531793,
            2.137673
          ],
          [
            44.530163,
            2.140758
          ],
          [
            44.528865,
            2.143916
          ],
          [
            44.528532,
            2.147735
          ],
          [
            44.527696,
            2.149288
          ],
          [
            44.527148,
            2.150028
          ],
          [
            44.527564,
            2.151358
          ],
          [
            44.527481,
            2.153469
          ],
          [
            44.52749,
            2.156803
          ],
          [
            44.527371,
            2.162177
          ],
          [
            44.527414,
            2.166081
          ],
          [
            44.52747,
            2.16882
          ],
          [
            44.527458,
            2.176819
          ],
          [
            44.527333,
            2.186339
          ],
          [
            44.526992,
            2.208714
          ],
          [
            44.526994,
            2.228097
          ],
          [
            44.526907,
            2.240791
          ],
          [
            44.527033,
            2.250621
          ],
          [
            44.526741,
            2.264805
          ],
          [
            44.526818,
            2.273724
          ],
          [
            44.526516,
            2.275064
          ],
          [
            44.52378,
            2.279199
          ]
        ]
      }
    },
    {
      "type": "Feature",
      "properties": {
        "name": "iriile -buula fulaay",
        "color": "#4452e5",
        "stroke": "#4452e5",
        "stroke-width": 4,
        "stroke-opacity": 0.8,
        "road_id": 15
      },
      "geometry": {
        "type": "LineString",
        "coordinates": [
          [
            44.157841,
            1.329993
          ],
          [
            44.156843,
            1.33089
          ],
          [
            44.152861,
            1.332036
          ],
          [
            44.148841,
            1.333769
          ],
          [
            44.144539,
            1.335992
          ],
          [
            44.140707,
            1.339939
          ],
          [
            44.137957,
            1.343886
          ],
          [
            44.132166,
            1.352625
          ],
          [
            44.121527,
            1.36907
          ],
          [
            44.106223,
            1.386148
          ],
          [
            44.088867,
            1.405224
          ],
          [
            44.080147,
            1.421637
          ],
          [
            44.055331,
            1.441201
          ],
          [
            44.036961,
            1.443775
          ],
          [
            44.028571,
            1.452698
          ],
          [
            44.020748,
            1.453429
          ],
          [
            43.964251,
            1.436822
          ],
          [
            43.928375,
            1.429909
          ],
          [
            43.915567,
            1.429095
          ],
          [
            43.911515,
            1.429981
          ],
          [
            43.901627,
            1.43043
          ],
          [
            43.890387,
            1.441784
          ],
          [
            43.862422,
            1.441862
          ],
          [
            43.843359,
            1.442002
          ],
          [
            43.828945,
            1.441487
          ],
          [
            43.817186,
            1.448866
          ],
          [
            43.792737,
            1.464139
          ],
          [
            43.523436,
            2.107913
          ]
        ]
      }
    },
    {
      "type": "Feature",
      "properties": {
        "name": "Qansahdhere -Dinsoor road",
        "color": "#81e544",
        "stroke": "#81e544",
        "stroke-width": 4,
        "stroke-opacity": 0.8,
        "road_id": 16
      },
      "geometry": {
        "type": "LineString",
        "coordinates": [
          [
            43.003359,
            2.871036
          ],
          [
            42.975106,
            2.406671
          ]
        ]
      }
    },
    {
      "type": "Feature",
      "properties": {
        "name": "Baidoa-Burhakaba",
        "color": "#e544b0",
        "stroke": "#e544b0",
        "stroke-width": 4,
        "stroke-opacity": 0.8,
        "road_id": 17
      },
      "geometry": {
        "type": "LineString",
        "coordinates": [
          [
            43.648588,
            3.115319
          ],
          [
            44.071304,
            2.79354
          ]
        ]
      }
    },
    {
      "type": "Feature",
      "properties": {
        "name": "Barhakaba-Afgoye",
        "color": "#44dfe5",
        "stroke": "#44dfe5",
        "stroke-width": 4,
        "stroke-opacity": 0.8,
        "road_id": 18
      },
      "geometry": {
        "type": "LineString",
        "coordinates": [
          [
            44.082622,
            2.794911
          ],
          [
            45.114704,
            2.145952
          ]
        ]
      }
    },
    {
      "type": "Feature",
      "properties": {
        "name": "Baidoa-Gofgaduud-Habalbarbaaro",
        "color": "#e5bc44",
        "stroke": "#e5bc44",
        "stroke-width": 4,
        "stroke-opacity": 0.8,
        "road_id": 19
      },
      "geometry": {
        "type": "LineString",
        "coordinates": [
          [
            43.161848,
            2.742273
          ],
          [
            43.648354,
            3.119947
          ]
        ]
      }
    },
    {
      "type": "Feature",
      "properties": {
        "name": "Berdaale -Wajid road",
        "color": "#8e44e5",
        "stroke": "#8e44e5",
        "stroke-width": 4,
        "stroke-opacity": 0.8,
        "road_id": 20
      },
      "geometry": {
        "type": "LineString",
        "coordinates": [
          [
            43.195717,
            3.215931
          ],
          [
            43.24714,
            3.813557
          ]
        ]
      }
    },
    {
      "type": "Feature",
      "properties": {
        "name": "wajid-Yeed road",
        "color": "#44e55f",
        "stroke": "#44e55f",
        "stroke-width": 4,
        "stroke-opacity": 0.8,
        "road_id": 21
      },
      "geometry": {
        "type": "LineString",
        "coordinates": [
          [
            43.247308,
            3.810742
          ],
          [
            43.246217,
            4.056068
          ],
          [
            43.165016,
            4.345416
          ],
          [
            43.025486,
            4.539838
          ]
        ]
      }
    },
    {
      "type": "Feature",
      "properties": {
        "name": "Yeed-Ceelberde road",
        "color": "#e54459",
        "stroke": "#e54459",
        "stroke-width": 4,
        "stroke-opacity": 0.8,
        "road_id": 22
      },
      "geometry": {
        "type": "LineString",
        "coordinates": [
          [
            43.0286,
            4.540832
          ],
          [
            43.13072,
            4.578494
          ],
          [
            43.358297,
            4.622881
          ],
          [
            43.660323,
            4.828099
          ]
        ]
      }
    },
    {
      "type": "Feature",
      "properties": {
        "name": "Rabdhurre-Ato road",
        "color": "#4488e5",
        "stroke": "#4488e5",
        "stroke-width": 4,
        "stroke-opacity": 0.8,
        "road_id": 23
      },
      "geometry": {
        "type": "LineString",
        "coordinates": [
          [
            43.165614,
            4.345801
          ],
          [
            43.358349,
            4.622978
          ]
        ]
      }
    },
    {
      "type": "Feature",
      "properties": {
        "name": "yeed-washaaqo road",
        "color": "#b7e544",
        "stroke": "#b7e544",
        "stroke-width": 4,
        "stroke-opacity": 0.8,
        "road_id": 24
      },
      "geometry": {
        "type": "LineString",
        "coordinates": [
          [
            43.028587,
            4.540982
          ],
          [
            42.969624,
            4.328793
          ]
        ]
      }
    },
    {
      "type": "Feature",
      "properties": {
        "name": "Dinsoor-Buulo fulaay",
        "color": "#e544e5",
        "stroke": "#e544e5",
        "stroke-width": 4,
        "stroke-opacity": 0.8,
        "road_id": 25
      },
      "geometry": {
        "type": "LineString",
        "coordinates": [
          [
            43.522973,
            2.110335
          ],
          [
            42.979768,
            2.405299
          ]
        ]
      }
    },
    {
      "type": "Feature",
      "properties": {
        "name": "Jazeera - Gardanshe road",
        "color": "#44e5b6",
        "stroke": "#44e5b6",
        "stroke-width": 4,
        "stroke-opacity": 0.8,
        "road_id": 26
      },
      "geometry": {
        "type": "LineString",
        "coordinates": [
          [
            45.180588,
            1.950212
          ],
          [
            44.96337,
            1.836805
          ]
        ]
      }
    },
    {
      "type": "Feature",
      "properties": {
        "name": "shalan boot to Cagaarane road",
        "color": "#e58744",
        "stroke": "#e58744",
        "stroke-width": 4,
        "stroke-opacity": 0.8,
        "road_id": 27
      },
      "geometry": {
        "type": "LineString",
        "coordinates": [
          [
            44.692139,
            1.704689
          ],
          [
            44.531623,
            1.788078
          ]
        ]
      }
    },
    {
      "type": "Feature",
      "properties": {
        "name": "Manaas-sabiyo",
        "color": "#5844e5",
        "stroke": "#5844e5",
        "stroke-width": 4,
        "stroke-opacity": 0.8,
        "road_id": 28
      },
      "geometry": {
        "type": "LineString",
        "coordinates": [
          [
            43.466829,
            2.898763
          ],
          [
            43.465916,
            2.89392
          ],
          [
            43.465699,
            2.892334
          ],
          [
            43.462054,
            2.89152
          ],
          [
            43.460651,
            2.89195
          ],
          [
            43.459321,
            2.891683
          ],
          [
            43.458462,
            2.891865
          ],
          [
            43.457313,
            2.892503
          ],
          [
            43.456273,
            2.892369
          ],
          [
            43.455522,
            2.891983
          ],
          [
            43.450212,
            2.892296
          ],
          [
            43.44527,
            2.88942
          ],
          [
            43.442747,
            2.888991
          ],
          [
            43.43624,
            2.885765
          ],
          [
            43.432544,
            2.884833
          ],
          [
            43.42695,
            2.881487
          ],
          [
            43.425116,
            2.876816
          ],
          [
            43.418428,
            2.873069
          ],
          [
            43.412163,
            2.86904
          ],
          [
            43.408373,
            2.865717
          ],
          [
            43.402986,
            2.862199
          ],
          [
            43.400747,
            2.861154
          ],
          [
            43.398715,
            2.860824
          ],
          [
            43.395389,
            2.857683
          ],
          [
            43.393232,
            2.856503
          ],
          [
            43.392966,
            2.856709
          ],
          [
            43.391409,
            2.856054
          ],
          [
            43.387767,
            2.854789
          ],
          [
            43.38511,
            2.851057
          ],
          [
            43.384804,
            2.848146
          ],
          [
            43.383983,
            2.848115
          ],
          [
            43.383044,
            2.846483
          ],
          [
            43.382229,
            2.844176
          ],
          [
            43.38105,
            2.843376
          ],
          [
            43.380041,
            2.842016
          ],
          [
            43.378986,
            2.840924
          ],
          [
            43.378537,
            2.840007
          ],
          [
            43.379786,
            2.837181
          ],
          [
            43.380832,
            2.836428
          ],
          [
            43.380996,
            2.834738
          ]
        ]
      }
    },
    {
      "type": "Feature",
      "properties": {
        "name": "buurhakaba-dhargo",
        "color": "#60e544",
        "stroke": "#60e544",
        "stroke-width": 4,
        "stroke-opacity": 0.8,
        "road_id": 29
      },
      "geometry": {
        "type": "LineString",
        "coordinates": [
          [
            44.127504,
            2.768217
          ],
          [
            44.028762,
            2.740258
          ],
          [
            43.848903,
            2.751446
          ],
          [
            43.577797,
            2.75791
          ],
          [
            43.432516,
            2.74941
          ]
        ]
      }
    },
    {
      "type": "Feature",
      "properties": {
        "name": "barawe to hudur",
        "color": "#e5448f",
        "stroke": "#e5448f",
        "stroke-width": 4,
        "stroke-opacity": 0.8,
        "road_id": 30
      },
      "geometry": {
        "type": "LineString",
        "coordinates": [
          [
            44.029657,
            1.111491
          ],
          [
            43.968819,
            1.18528
          ],
          [
            43.934685,
            1.299176
          ],
          [
            43.844573,
            1.45639
          ],
          [
            43.58346,
            1.87534
          ],
          [
            43.335972,
            2.427527
          ],
          [
            43.435796,
            2.761511
          ],
          [
            43.627464,
            3.04264
          ],
          [
            43.644613,
            3.108345
          ],
          [
            43.645601,
            3.112505
          ],
          [
            43.640204,
            3.128899
          ],
          [
            43.661046,
            3.420825
          ],
          [
            43.809324,
            3.782657
          ],
          [
            43.836112,
            4.015268
          ],
          [
            43.87285,
            4.093195
          ],
          [
            43.886287,
            4.110525
          ],
          [
            43.890488,
            4.124127
          ]
        ]
      }
    },
    {
      "type": "Feature",
      "properties": {
        "name": "kuntunwaaray-buurhaba",
        "color": "#44bde5",
        "stroke": "#44bde5",
        "stroke-width": 4,
        "stroke-opacity": 0.8,
        "road_id": 31
      },
      "geometry": {
        "type": "LineString",
        "coordinates": [
          [
            44.334089,
            1.610245
          ],
          [
            44.311529,
            1.632064
          ],
          [
            44.254599,
            1.675717
          ],
          [
            44.240887,
            1.719909
          ],
          [
            44.209732,
            1.96723
          ],
          [
            44.117162,
            2.287775
          ],
          [
            44.215914,
            2.743267
          ],
          [
            44.166536,
            2.760054
          ],
          [
            44.085782,
            2.799266
          ],
          [
            44.078379,
            2.794533
          ]
        ]
      }
    },
    {
      "type": "Feature",
      "properties": {
        "name": "buurhakaba-ceelbarde",
        "color": "#e5de44",
        "stroke": "#e5de44",
        "stroke-width": 4,
        "stroke-opacity": 0.8,
        "road_id": 32
      },
      "geometry": {
        "type": "LineString",
        "coordinates": [
          [
            44.077122,
            2.794328
          ],
          [
            44.08542,
            2.813152
          ],
          [
            44.115712,
            2.869519
          ],
          [
            44.157033,
            2.966064
          ],
          [
            44.308826,
            3.210652
          ],
          [
            44.41271,
            3.754566
          ],
          [
            44.530666,
            4.020405
          ],
          [
            44.424286,
            4.293758
          ],
          [
            43.992789,
            4.706699
          ],
          [
            43.710796,
            4.794852
          ],
          [
            43.674847,
            4.807592
          ],
          [
            43.660629,
            4.828139
          ],
          [
            43.659906,
            4.829577
          ]
        ]
      }
    },
    {
      "type": "Feature",
      "properties": {
        "name": "walaweyn-tiyeeglow",
        "color": "#af44e5",
        "stroke": "#af44e5",
        "stroke-width": 4,
        "stroke-opacity": 0.8,
        "road_id": 33
      },
      "geometry": {
        "type": "LineString",
        "coordinates": [
          [
            44.891333,
            2.609362
          ],
          [
            44.893947,
            2.62392
          ],
          [
            44.893417,
            2.635667
          ],
          [
            44.891667,
            2.676111
          ],
          [
            44.759472,
            2.881528
          ],
          [
            44.695693,
            3.294048
          ],
          [
            44.468099,
            3.912415
          ],
          [
            44.508649,
            4.014548
          ]
        ]
      }
    },
    {
      "type": "Feature",
      "properties": {
        "name": "Bardaale-Tosweyne road",
        "color": "#44e580",
        "stroke": "#44e580",
        "stroke-width": 4,
        "stroke-opacity": 0.8,
        "road_id": 34
      },
      "geometry": {
        "type": "LineString",
        "coordinates": [
          [
            43.205799,
            3.106235
          ],
          [
            43.199646,
            3.215245
          ]
        ]
      }
    },
    {
      "type": "Feature",
      "properties": {
        "name": "Burdhuxunle-Rabdhure road",
        "color": "#e55144",
        "stroke": "#e55144",
        "stroke-width": 4,
        "stroke-opacity": 0.8,
        "road_id": 35
      },
      "geometry": {
        "type": "LineString",
        "coordinates": [
          [
            43.245998,
            4.056184
          ],
          [
            43.160761,
            4.345727
          ]
        ]
      }
    },
    {
      "type": "Feature",
      "properties": {
        "name": "Awdinle-Goofgadud",
        "color": "#4467e5",
        "stroke": "#4467e5",
        "stroke-width": 4,
        "stroke-opacity": 0.8,
        "road_id": 36
      },
      "geometry": {
        "type": "LineString",
        "coordinates": [
          [
            43.469197,
            3.315826
          ],
          [
            43.404005,
            3.169654
          ]
        ]
      }
    },
    {
      "type": "Feature",
      "properties": {
        "name": "Daynuunay- Haabare",
        "color": "#95e544",
        "stroke": "#95e544",
        "stroke-width": 4,
        "stroke-opacity": 0.8,
        "road_id": 37
      },
      "geometry": {
        "type": "LineString",
        "coordinates": [
          [
            43.829931,
            3.216025
          ],
          [
            43.797838,
            3.038162
          ]
        ]
      }
    },
    {
      "type": "Feature",
      "properties": {
        "name": "Hudur-Abal",
        "color": "#e544c4",
        "stroke": "#e544c4",
        "stroke-width": 4,
        "stroke-opacity": 0.8,
        "road_id": 38
      },
      "geometry": {
        "type": "LineString",
        "coordinates": [
          [
            43.948764,
            4.011311
          ],
          [
            43.882573,
            4.123519
          ]
        ]
      }
    },
    {
      "type": "Feature",
      "properties": {
        "name": "Buulofulay-Burhakaba",
        "color": "#44e5d7",
        "stroke": "#44e5d7",
        "stroke-width": 4,
        "stroke-opacity": 0.8,
        "road_id": 39
      },
      "geometry": {
        "type": "LineString",
        "coordinates": [
          [
            43.522476,
            2.110351
          ],
          [
            44.076631,
            2.797655
          ]
        ]
      }
    }
  ]
}